INTELSAT 26             
1 24732C 97007A   20240.00000000  .00000108  00000-0  00000-0 0  2407
2 24732   9.1394  42.5517 0006836  84.9359 271.8323  1.00276244    14
INTELSAT 26         [PM]
1 24732C 97007A   20242.20833333  .00000108  00000-0  00000-0 0  2426
2 24732   9.1417  42.5558 0004921  41.0294  32.9528  1.00269845    12
INTELSAT 26             
1 24732C 97007A   20244.00000000  .00000108  00000-0  00000-0 0  2445
2 24732   9.1425  42.5254 0006973  88.8320 271.9038  1.00274710    10
INTELSAT 26         [PM]
1 24732C 97007A   20244.37152778  .00000108  00000-0  00000-0 0  2445
2 24732   9.1416  42.5621 0002123  25.0035 109.8610  1.00265820    14
GALAXY 25               
1 24812C 97026A   20240.00000000  .00000245  00000-0  00000-0 0  2409
2 24812   2.0884  89.8869 0002598  88.9821 189.7096  1.00271428    15
GALAXY 25               
1 24812C 97026A   20244.00000000  .00000246  00000-0  00000-0 0  2448
2 24812   2.0964  89.9360 0002993  98.9952 183.6001  1.00273440    11
GALAXY 25           [PM]
1 24812C 97026A   20245.12637732  .00000245  00000-0  00000-0 0  2450
2 24812   2.0980  89.9198 0003004  95.9105 233.3152  1.00270186    13
INTELSAT 5          [PM]
1 24916C 97046A   20222.82114583  .00000186  00000-0  00000-0 0  2222
2 24916   5.8139  65.2464 0004341  60.5190 351.5934  1.00272907    19
INTELSAT 5              
1 24916C 97046A   20240.00000000  .00000186  00000-0  00000-0 0  2400
2 24916   5.8519  65.1791 0003017  51.0853  82.4304  1.00268878    16
INTELSAT 5              
1 24916C 97046A   20244.00000000  .00000186  00000-0  00000-0 0  2448
2 24916   5.8577  65.1656 0002687  61.9042  75.5696  1.00270623    10
GALAXY 11               
1 26038C 99071A   20240.00000000 -.00000072  00000-0  00000-0 0  2402
2 26038   1.3879  95.3397 0001254 345.9841 161.2563  1.00270902    17
GALAXY 11               
1 26038C 99071A   20244.00000000 -.00000072  00000-0  00000-0 0  2440
2 26038   1.3968  95.4496 0000998 355.6946 155.3872  1.00270670    14
INTELSAT 9              
1 26451C 00043A   20240.00000000 -.00000191  00000-0  00000-0 0  2404
2 26451   5.8409  65.3548 0001202  98.6850 121.6259  1.00275991    19
INTELSAT 9          [PM]
1 26451C 00043A   20240.87033565 -.00000191  00000-0  00000-0 0  2401
2 26451   5.8424  65.3540 0000687  57.2506 117.2482  1.00274587    12
INTELSAT 9              
1 26451C 00043A   20244.00000000 -.00000191  00000-0  00000-0 0  2442
2 26451   5.8460  65.3399 0001636 118.2820 106.0097  1.00274427    17
INTELSAT 12             
1 26590C 00068A   20240.00000000  .00000104  00000-0  00000-0 0  2408
2 26590   3.0948  85.6262 0003658  77.6984 236.6155  1.00272524    12
INTELSAT 12             
1 26590C 00068A   20244.00000000  .00000104  00000-0  00000-0 0  2446
2 26590   3.1019  85.6405 0003960  85.0425 233.1986  1.00271864    10
INTELSAT 12         [PM]
1 26590C 00068A   20245.00311343  .00000104  00000-0  00000-0 0  2453
2 26590   3.1092  71.6668 0003474  71.8516 262.4824  1.00271866    19
INTELSAT 1R             
1 26608C 00072A   20240.00000000 -.00000047  00000-0  00000-0 0  2400
2 26608   2.8831  86.0975 0001098   8.9473  37.7374  1.00271324    12
INTELSAT 1R             
1 26608C 00072A   20244.00000000 -.00000047  00000-0  00000-0 0  2448
2 26608   2.8892  86.1158 0001069  15.6168  34.9960  1.00271380    19
INTELSAT 10             
1 26766C 01019A   20240.00000000  .00000216  00000-0  00000-0 0  2404
2 26766   4.0491  78.4985 0002280  90.4713 214.2363  1.00269177    19
INTELSAT 10             
1 26766C 01019A   20244.00000000  .00000216  00000-0  00000-0 0  2442
2 26766   4.0557  78.5017 0002597  98.9578 209.6805  1.00271134    17
INTELSAT 10         [PM]
1 26766C 01019A   20246.06986111  .00000216  00000-0  00000-0 0  2468
2 26766   4.0587  78.4672 0002843  94.7593 241.1057  1.00270894    13
INTELSAT 901            
1 26824C 01024A   20240.00000000 -.00000118  00000-0  00000-0 0  2407
2 26824   0.0416 288.2283 0001202 223.0279 156.9241  1.00271439    14
INTELSAT 901            
1 26824C 01024A   20244.00000000 -.00000128  00000-0  00000-0 0  2446
2 26824   0.0476 284.0001 0001284 227.2886 160.8347  1.00271658    16
INTELSAT 902            
1 26900C 01039A   20240.00000000 -.00000192  00000-0  00000-0 0  2400
2 26900   0.7854  96.0407 0003493  82.2321 107.3109  1.00271326    10
INTELSAT 902        [PM]
1 26900C 01039A   20243.34379630 -.00000192  00000-0  00000-0 0  2431
2 26900   0.7956  84.6943 0003467  81.0544 246.8945  1.00272880    19
INTELSAT 902            
1 26900C 01039A   20244.00000000 -.00000192  00000-0  00000-0 0  2448
2 26900   0.7937  96.2167 0003455  81.8810 111.4270  1.00272453    10
INTELSAT 902        [PM]
1 26900C 01039A   20244.44568287 -.00000192  00000-0  00000-0 0  2442
2 26900   0.7942  96.2106 0003551  84.1172 270.0825  1.00272318    11
INTELSAT 904            
1 27380C 02007A   20240.00000000 -.00000123  00000-0  00000-0 0  2403
2 27380   1.6245  92.6634 0003347  58.9730 154.5463  1.00271673    15
INTELSAT 904        [PM]
1 27380C 02007A   20243.83998843 -.00000123  00000-0  00000-0 0  2431
2 27380   1.6323  92.7112 0003444  61.8408  97.8019  1.00272854    15
INTELSAT 904            
1 27380C 02007A   20244.00000000 -.00000123  00000-0  00000-0 0  2441
2 27380   1.6326  92.7229 0003479  64.1238 153.2689  1.00273332    14
INTELSAT 905            
1 27438C 02027A   20240.00000000 -.00000094  00000-0  00000-0 0  2406
2 27438   1.4451  93.5593 0002733  48.9693 168.6435  1.00272983    15
INTELSAT 905        [PM]
1 27438C 02027A   20240.73733796 -.00000094  00000-0  00000-0 0  2401
2 27438   1.4470  93.5688 0002818  48.4221  75.3541  1.00272061    16
INTELSAT 905            
1 27438C 02027A   20244.00000000 -.00000094  00000-0  00000-0 0  2444
2 27438   1.4533  93.6316 0002785  59.2486 162.2442  1.00272193    13
GALAXY 3C               
1 27445C 02030A   20240.00000000 -.00000087  00000-0  00000-0 0  2400
2 27445   0.0049 216.6077 0001365 130.3237 253.6876  1.00270343    18
GALAXY 3C               
1 27445C 02030A   20244.00000000 -.00000095  00000-0  00000-0 0  2447
2 27445   0.0176 232.2531 0001385 112.8801 259.4419  1.00270620    17
INTELSAT 906            
1 27513C 02041A   20240.00000000  .00000105  00000-0  00000-0 0  2408
2 27513   0.4497  98.8652 0003517  64.1282 236.8369  1.00271465    15
INTELSAT 906            
1 27513C 02041A   20244.00000000  .00000105  00000-0  00000-0 0  2446
2 27513   0.4582  99.2113 0003709  71.0246 233.5379  1.00272465    13
INTELSAT 906        [PM]
1 27513C 02041A   20245.56416667  .00000105  00000-0  00000-0 0  2459
2 27513   0.4627  92.0142 0003470  61.0872  95.3087  1.00271904    12
GALAXY 12               
1 27715C 03013B   20240.00000000  .00000149  00000-0  00000-0 0  2400
2 27715   1.6600  91.9941 0002123  54.4334  60.2545  1.00270344    15
GALAXY 12               
1 27715C 03013B   20244.00000000  .00000149  00000-0  00000-0 0  2448
2 27715   1.6679  92.0537 0002166  63.9157  54.6501  1.00271390    10
GALAXY 12           [PM]
1 27715C 03013B   20245.57465278  .00000149  00000-0  00000-0 0  2454
2 27715   1.6702  92.0378 0002278  74.6633 252.3489  1.00271300    15
GALAXY 23               
1 27854C 03034A   20240.00000000  .00000090  00000-0  00000-0 0  2402
2 27854   0.0526 276.3046 0003440 242.1424  56.2343  1.00272684    13
GALAXY 23           [PM]
1 27854C 03034A   20242.04303241  .00000103  00000-0  00000-0 0  2428
2 27854   0.0498 269.4351 0003316 226.4361  96.3155  1.00270713    17
GALAXY 23               
1 27854C 03034A   20244.00000000  .00000103  00000-0  00000-0 0  2445
2 27854   0.0537 278.6059 0003324 236.4981  63.5169  1.00271012    10
GALAXY 13               
1 27954C 03044A   20240.00000000  .00000137  00000-0  00000-0 0  2406
2 27954   0.0000 114.3382 0000345  23.8485  70.4933  1.00268090    16
GALAXY 13           [PM]
1 27954C 03044A   20241.75032407  .00000159  00000-0  00000-0 0  2410
2 27954   0.0297 252.9617 0000507 285.8452 301.7004  1.00269582    14
GALAXY 13               
1 27954C 03044A   20244.00000000  .00000136  00000-0  00000-0 0  2443
2 27954   0.0332 258.2387 0003625 257.7521  56.6275  1.00268615    18
INTELSAT 10-02          
1 28358C 04022A   20240.00000000  .00000071  00000-0  00000-0 0  2409
2 28358   0.0083 184.4338 0003381 339.2526 170.9914  1.00272547    15
INTELSAT 10-02      [PM]
1 28358C 04022A   20243.23120370  .00000080  00000-0  00000-0 0  2433
2 28358   0.0053 142.9775 0003171   0.6958 277.4221  1.00271831    10
INTELSAT 10-02          
1 28358C 04022A   20244.00000000  .00000081  00000-0  00000-0 0  2448
2 28358   0.0079 153.3872 0003315   0.0204 185.2106  1.00272364    10
GALAXY 28               
1 28702C 05022A   20240.00000000 -.00000095  00000-0  00000-0 0  2400
2 28702   0.0083 106.3074 0001715 332.2118 168.1680  1.00270980    15
GALAXY 28           [PM]
1 28702C 05022A   20240.15024306 -.00000113  00000-0  00000-0 0  2402
2 28702   0.0026 101.8946 0001906 329.3072 229.7242  1.00272700    18
GALAXY 28               
1 28702C 05022A   20244.00000000 -.00000095  00000-0  00000-0 0  2448
2 28702   0.0014 135.2294 0001766 311.7142 163.6945  1.00269806    18
GALAXY 14               
1 28790C 05030A   20240.00000000 -.00001736  00000-0  00000-0 0  2409
2 28790   0.0042 302.0148 0002716 208.0728  60.5908  1.00271975    16
GALAXY 14           [PM]
1 28790C 05030A   20243.50089120  .00000135  00000-0  00000-0 0  2431
2 28790   0.0634 294.6675 0002683 218.9659 240.8362  1.00270210    18
GALAXY 14               
1 28790C 05030A   20244.00000000  .00000119  00000-0  00000-0 0  2440
2 28790   0.0632 295.8482 0002640 218.0318  60.7590  1.00269784    17
GALAXY 15               
1 28884C 05041A   20240.00000000  .00000167  00000-0  00000-0 0  2401
2 28884   0.0460 287.0128 0002040 215.7729  59.8995  1.00270204    11
